NORAD_CAT_ID,OBJECT_NAME,OBJECT_TYPE,EPOCH,MEAN_MOTION,ECCENTRICITY,INCLINATION,RA_OF_ASC_NODE,ARG_OF_PERICENTER,MEAN_ANOMALY,BSTAR,MEAN_MOTION_DOT,MEAN_MOTION_DDOT,TLE_LINE0,TLE_LINE1,TLE_LINE2,SEMIMAJOR_AXIS,PERIOD,APOGEE,PERIGEE,DECAYED
54760.0,STARLINK-5220,PAYLOAD,2023-01-17 16:00:00,15.45672119,0.0001398,53.2143,155.3488,76.9675,94.316,-0.0263519999999999,-0.01177905,0.0,0 STARLINK-5220,1 54760U 22175C   23017.66667824 -.01177905  00000-0 -26352-1 0  9998,2 54760  53.2143 155.3488 0001398  76.9675  94.3160 15.45672119  4566,6807.541,93.163,430.358,428.454,0.0
54760.0,STARLINK-5220,PAYLOAD,2023-01-17 22:00:00,15.45068134,0.0001304,53.2141,154.1622,74.1857,48.6903,-0.0282839999999999,-0.01232704,0.0,0 STARLINK-5220,1 54760U 22175C   23017.91667824 -.01232704  00000-0 -28284-1 0  9991,2 54760  53.2141 154.1622 0001304  74.1857  48.6903 15.45068134  1302,6809.315,93.2,432.068,430.292,0.0
54760.0,STARLINK-5220,PAYLOAD,2023-01-18 12:00:00,15.43561606,0.0001338,53.2142,151.39700000000002,88.2906,39.4208,-0.0296649999999999,-0.0122835,0.0,0 STARLINK-5220,1 54760U 22175C   23018.50001157 -.01228350  00000-0 -29665-1 0  9994,2 54760  53.2142 151.3970 0001338  88.2906  39.4208 15.43561606  4697,6813.745,93.291,436.521,434.698,0.0
54760.0,STARLINK-5220,PAYLOAD,2023-01-18 14:00:01,15.43323358,0.0001375,53.214,151.0031,90.6003,140.4097,-0.028973,-0.01193408,0.0,0 STARLINK-5220,1 54760U 22175C   23018.58334491 -.01193408  00000-0 -28973-1 0  9998,2 54760  53.2140 151.0031 0001375  90.6003 140.4097 15.43323358  1300,6814.446,93.305,437.2480000000001,435.374,0.0
54760.0,STARLINK-5220,PAYLOAD,2023-01-18 22:00:00,15.42501975,0.0001154,53.2135,149.4269,87.4479,196.0633,-0.0311819999999999,-0.01243926,0.0,0 STARLINK-5220,1 54760U 22175C   23018.91667824 -.01243926  00000-0 -31182-1 0  9991,2 54760  53.2135 149.4269 0001154  87.4479 196.0633 15.42501975  1309,6816.865,93.355,439.517,437.943,0.0
54760.0,STARLINK-5220,PAYLOAD,2023-01-19 14:00:01,15.40753722,0.0001146,53.2139,146.2802,82.0164,303.4483,-0.031636,-0.01194825,0.0,0 STARLINK-5220,1 54760U 22175C   23019.58334491 -.01194825  00000-0 -31636-1 0  9993,2 54760  53.2139 146.2802 0001146  82.0164 303.4483 15.40753722  1308,6822.021,93.461,444.667,443.104,0.0
54760.0,STARLINK-5220,PAYLOAD,2023-01-20 14:00:01,15.38180378,0.0001443999999999,53.2143,141.5757,81.2899,89.3612,-0.034321,-0.01190844,0.0,0 STARLINK-5220,1 54760U 22175C   23020.58334491 -.01190844  00000-0 -34321-1 0  9996,2 54760  53.2143 141.5757 0001444  81.2899  89.3612 15.38180378  5011,6829.627,93.617,452.478,450.506,0.0
54760.0,STARLINK-5220,PAYLOAD,2023-01-20 16:00:00,15.37962917,0.0001281999999999,53.2144,141.1848,83.6657,188.6634,-0.034166,-0.01178218,0.0,0 STARLINK-5220,1 54760U 22175C   23020.66667824 -.01178218  00000-0 -34166-1 0  9992,2 54760  53.2144 141.1848 0001282  83.6657 188.6634 15.37962917  1308,6830.271,93.63,453.012,451.26,0.0
54760.0,STARLINK-5220,PAYLOAD,2023-01-21 14:00:01,15.35604894,0.0001264999999999,53.215,136.8896,82.0515,224.5151,-0.037066,-0.01183359,0.0,0 STARLINK-5220,1 54760U 22175C   23021.58334491 -.01183359  00000-0 -37066-1 0  9999,2 54760  53.2150 136.8896 0001265  82.0515 224.5151 15.35604894  5174,6837.261,93.774,459.991,458.261,0.0
54760.0,STARLINK-5220,PAYLOAD,2023-01-22 08:00:01,15.33705475,0.0001458,53.216,133.3854,89.698,42.7085,-0.040591,-0.0121604,0.0,0 STARLINK-5220,1 54760U 22175C   23022.33334491 -.01216040  00000-0 -40591-1 0  9994,2 54760  53.2160 133.3854 0001458  89.6980  42.7085 15.33705475  5287,6842.905,93.89,465.768,463.773,0.0
54760.0,STARLINK-5220,PAYLOAD,2023-01-23 14:00:01,15.30465517,0.0001467,53.2162,127.572,77.6254,112.9587,-0.043655,-0.01183901,0.0,0 STARLINK-5220,1 54760U 22175C   23023.58334491 -.01183901  00000-0 -43655-1 0  9995,2 54760  53.2162 127.5720 0001467  77.6254 112.9587 15.30465517  5472,6852.559,94.089,475.43,473.419,0.0
54760.0,STARLINK-5220,PAYLOAD,2023-01-24 08:00:01,15.28561964,0.0001274,53.2164,124.0952,96.4966,266.026,-0.0476899999999999,-0.0123301,0.0,0 STARLINK-5220,1 54760U 22175C   23024.33334491 -.01233010  00000-0 -47690-1 0  9999,2 54760  53.2164 124.0952 0001274  96.4966 266.0260 15.28561964  5590,6858.246999999999,94.206,480.986,479.239,0.0
54760.0,STARLINK-5220,PAYLOAD,2023-01-25 14:00:01,15.25321711,0.0001242,53.2159,118.3265,75.1703,322.3537,-0.050912,-0.01195487,0.0,0 STARLINK-5220,1 54760U 22175C   23025.58334491 -.01195487  00000-0 -50912-1 0  9993,2 54760  53.2159 118.3265 0001242  75.1703 322.3537 15.25321711  1304,6867.956999999999,94.406,490.675,488.969,0.0
54760.0,STARLINK-5220,PAYLOAD,2023-01-25 16:00:01,15.25095376,0.000143,53.216,117.9431,73.5361,61.8726,-0.050123,-0.01171021,0.0,0 STARLINK-5220,1 54760U 22175C   23025.66668981 -.01171021  00000-0 -50123-1 0  9998,2 54760  53.2160 117.9431 0001430  73.5361  61.8726 15.25095376  5794,6868.636,94.42,491.483,489.519,0.0
54760.0,STARLINK-5220,PAYLOAD,2023-01-25 22:00:00,15.24486451,0.0001247,53.2157,116.7917,75.5033,352.9021,-0.054176,-0.01236823,0.0,0 STARLINK-5220,1 54760U 22175C   23025.91667824 -.01236823  00000-0 -54176-1 0  9995,2 54760  53.2157 116.7917 0001247  75.5033 352.9021 15.24486451  1302,6870.465,94.458,493.187,491.473,0.0
54760.0,STARLINK-5220,PAYLOAD,2023-01-26 06:00:00,15.23625411,0.0001371,53.2158,115.2589,81.5028,16.7538,-0.054621,-0.01216931,0.0,0 STARLINK-5220,1 54760U 22175C   23026.25001157 -.01216931  00000-0 -54621-1 0  9997,2 54760  53.2158 115.2589 0001371  81.5028  16.7538 15.23625411  5886,6873.053000000001,94.511,495.86,493.976,0.0
54760.0,STARLINK-5220,PAYLOAD,2023-01-26 14:00:01,15.2274457,0.0001464,53.2157,113.7309,72.2752,54.8159,-0.054497,-0.01185355,0.0,0 STARLINK-5220,1 54760U 22175C   23026.58334491 -.01185355  00000-0 -54497-1 0  9999,2 54760  53.2157 113.7309 0001464  72.2752  54.8159 15.22744570  1304,6875.703,94.566,498.575,496.562,0.0
54760.0,STARLINK-5220,PAYLOAD,2023-01-27 08:00:01,15.20842911,0.0001392,53.2155,110.2948,100.1505,178.0234,-0.0600029999999999,-0.01229702,0.0,0 STARLINK-5220,1 54760U 22175C   23027.33334491 -.01229702  00000-0 -60003-1 0  9998,2 54760  53.2155 110.2948 0001392 100.1505 178.0234 15.20842911  6056,6881.434,94.684,504.257,502.341,0.0
54760.0,STARLINK-5220,PAYLOAD,2023-01-27 14:00:01,15.20168253,0.0001517,53.2154,109.1534,85.5462,121.8408,-0.0582539999999999,-0.01175065,0.0,0 STARLINK-5220,1 54760U 22175C   23027.58334491 -.01175065  00000-0 -58254-1 0  9992,2 54760  53.2154 109.1534 0001517  85.5462 121.8408 15.20168253  1302,6883.47,94.726,506.379,504.29,0.0
54760.0,STARLINK-5220,PAYLOAD,2023-01-27 22:00:00,15.19335846,0.0001358,53.2154,107.6302,91.2201,140.8682,-0.062382,-0.01223706,0.0,0 STARLINK-5220,1 54760U 22175C   23027.91667824 -.01223706  00000-0 -62382-1 0  9991,2 54760  53.2154 107.6302 0001358  91.2201 140.8682 15.19335846  1303,6885.984,94.778,508.784,506.914,0.0
54760.0,STARLINK-5220,PAYLOAD,2023-01-28 14:00:01,15.17595101,0.00014,53.2156,104.5939,85.5588,192.8539,-0.062534,-0.01170692,0.0,0 STARLINK-5220,1 54760U 22175C   23028.58334491 -.01170692  00000-0 -62534-1 0  9990,2 54760  53.2156 104.5939 0001400  85.5588 192.8539 15.17595101  6245,6891.248,94.887,514.078,512.149,0.0
54760.0,STARLINK-5220,PAYLOAD,2023-01-28 22:00:00,15.16758384,0.0001259,53.2156,103.0767,89.6894,210.3362,-0.066656,-0.01214232,0.0,0 STARLINK-5220,1 54760U 22175C   23028.91667824 -.01214232  00000-0 -66656-1 0  9994,2 54760  53.2156 103.0767 0001259  89.6894 210.3362 15.16758384  1300,6893.782,94.939,516.515,514.779,0.0
54760.0,STARLINK-5220,PAYLOAD,2023-01-29 08:00:01,15.15698123,0.0001291,53.2157,101.185,82.1907,333.3999,-0.069695,-0.01230132,0.0,0 STARLINK-5220,1 54760U 22175C   23029.33334491 -.01230132  00000-0 -69695-1 0  9995,2 54760  53.2157 101.1850 0001291  82.1907 333.3999 15.15698123  6357,6896.997,95.006,519.752,517.972,0.0
54760.0,STARLINK-5220,PAYLOAD,2023-01-29 22:00:01,15.14179507,0.0001238,53.216,98.5412,90.1835,268.573,-0.071012,-0.01202712,0.0,0 STARLINK-5220,1 54760U 22175C   23029.91668981 -.01202712  00000-0 -71012-1 0  9992,2 54760  53.2160  98.5412 0001238  90.1835 268.5730 15.14179507  1305,6901.608,95.101,524.327,522.618,0.0
54760.0,STARLINK-5220,PAYLOAD,2023-01-30 10:00:00,15.12893702,0.0001534,53.2161,96.2813,92.3769,112.1711,-0.073647,-0.01202873,0.0,0 STARLINK-5220,1 54760U 22175C   23030.41667824 -.01202873  00000-0 -73647-1 0  9998,2 54760  53.2161  96.2813 0001534  92.3769 112.1711 15.12893702  6525,6905.518,95.182,528.442,526.323,0.0
54760.0,STARLINK-5220,PAYLOAD,2023-01-30 14:00:01,15.12452158,0.0001304,53.2163,95.5292,85.0582,307.5934,-0.072234,-0.01168156,0.0,0 STARLINK-5220,1 54760U 22175C   23030.58334491 -.01168156  00000-0 -72234-1 0  9993,2 54760  53.2163  95.5292 0001304  85.0582 307.5934 15.12452158  1301,6906.861,95.21,529.627,527.826,0.0
54760.0,STARLINK-5220,PAYLOAD,2023-01-31 00:00:00,15.11373169,0.0001397,53.2165,93.6479,91.667,50.1242,-0.074006,-0.01161749,0.0,0 STARLINK-5220,1 54760U 22175C   23031.00001157 -.01161749  00000-0 -74006-1 0  9991,2 54760  53.2165  93.6479 0001397  91.6670  50.1242 15.11373169  1308,6910.148,95.278,532.979,531.048,0.0
54760.0,STARLINK-5220,PAYLOAD,2023-01-31 08:00:01,15.10546267,0.0001469,53.2168,92.1474,89.0565,66.8728,-0.079729,-0.01218033,0.0,0 STARLINK-5220,1 54760U 22175C   23031.33334491 -.01218033  00000-0 -79729-1 0  9993,2 54760  53.2168  92.1474 0001469  89.0565  66.8728 15.10546267  6650,6912.67,95.33,535.55,533.519,0.0
54760.0,STARLINK-5220,PAYLOAD,2023-01-31 14:00:01,15.09849262,0.0001313,53.2169,91.0239,82.3021,353.5715,-0.07246,-0.01095583,0.0,0 STARLINK-5220,1 54760U 22175C   23031.58334491 -.01095583  00000-0 -72460-1 0  9998,2 54760  53.2169  91.0239 0001313  82.3021 353.5715 15.09849262  1307,6914.797,95.374,537.57,535.754,0.0
